[{"OBJECT_NAME":"YAOGAN-36 02B","OBJECT_ID":"2022-133B","EPOCH":"2026-03-09T22:42:31.775904","MEAN_MOTION":15.30199518,"ECCENTRICITY":0.00056841,"INCLINATION":34.9983,"RA_OF_ASC_NODE":22.5268,"ARG_OF_PERICENTER":273.0351,"MEAN_ANOMALY":86.9715,"EPHEMERIS_TYPE":0,"CLASSIFICATION_TYPE":"U","NORAD_CAT_ID":54043,"ELEMENT_SET_NO":999,"REV_AT_EPOCH":18962,"BSTAR":0.00051218814,"MEAN_MOTION_DOT":0.00015352,"MEAN_MOTION_DDOT":0},{"OBJECT_NAME":"STARLINK-32174","OBJECT_ID":"2024-183A","EPOCH":"2026-03-09T10:25:33.848256","MEAN_MOTION":15.30197352,"ECCENTRICITY":0.00013537,"INCLINATION":53.1611,"RA_OF_ASC_NODE":130.83,"ARG_OF_PERICENTER":63.8495,"MEAN_ANOMALY":296.2645,"EPHEMERIS_TYPE":0,"CLASSIFICATION_TYPE":"U","NORAD_CAT_ID":61509,"ELEMENT_SET_NO":999,"REV_AT_EPOCH":7979,"BSTAR":1.6940194e-5,"MEAN_MOTION_DOT":1.42e-6,"MEAN_MOTION_DDOT":0}]
